0 COSMOS 764
1 08288U 75086D   13281.73704987  .00000021  00000-0  27325-3 0  9896
2 08288 074.0075 286.2181 0030861 255.3340 218.5600 12.41030397724497
0 COSMOS 764
1 08288U 75086D   13283.75141390  .00000006  00000-0  16160-3 0  9903
2 08288 074.0073 283.5820 0030855 252.3836 218.1312 12.41030667724749
0 COSMOS 764
1 08288U 75086D   13286.16069225 -.00000022  00000-0 -42912-4 0  9913
2 08288 074.0074 280.4290 0030822 248.9122 182.0049 12.41031035725040
0 COSMOS 764
1 08288U 75086D   13288.43635999 -.00000028  00000-0 -90838-4 0  9929
2 08288 074.0077 277.4507 0030791 245.6125 268.9735 12.41031067725324
0 COSMOS 764
1 08288U 75086D   13290.45242008 -.00000026  00000-0 -74306-4 0  9930
2 08288 074.0081 274.8121 0030762 242.6904 276.0964 12.41030964725578
0 COSMOS 764
1 08288U 75086D   13292.47091826 -.00000001  00000-0  10976-3 0  9949
2 08288 074.0084 272.1707 0030751 239.7560 294.1204 12.41030777725823
0 COSMOS 764
1 08288U 75086D   13295.11328069  .00000015  00000-0  22925-3 0  9957
2 08288 074.0086 268.7130 0030695 235.9202 219.3691 12.41030699726153
